ONEWEB-0144             
1 47290U 20100AJ  24268.80914679  .00000408  00000+0  10990-2 0  9993
2 47290  87.8860 116.1984 0002028  79.1671 280.9685 13.12441693181882
ONEWEB-0145             
1 47291U 20100AK  24268.85618133 -.00000011  00000+0 -66262-4 0  9992
2 47291  87.8863 116.2134 0001843  81.1093 279.0244 13.12444589182089
ONEWEB-0146             
1 47292U 20100AL  24268.85292215 -.00000120  00000+0 -36994-3 0  9991
2 47292  87.8863 116.1985 0001344  92.1126 268.0157 13.12445035181995
ONEWEB-0147             
1 47293U 20100AM  24268.81887307  .00000107  00000+0  26164-3 0  9991
2 47293  87.8859 116.1952 0001909  88.8895 271.2453 13.12440388181886
ONEWEB-0115             
1 48042U 21025A   24268.50109920  .00000130  00000+0  32133-3 0  9994
2 48042  87.8847  85.7162 0001630  93.0295 267.1021 13.13466805170801
ONEWEB-0152             
1 48043U 21025B   24268.74233325 -.00000010  00000+0 -61016-4 0  9990
2 48043  87.8852  85.6696 0001686  94.3279 265.8043 13.13469715170808
ONEWEB-0153             
1 48044U 21025C   24268.79629665  .00000375  00000+0  99194-3 0  9991
2 48044  87.8855  85.6493 0001720  88.5556 271.5770 13.13469833170801
ONEWEB-0154             
1 48045U 21025D   24268.79313292  .00000446  00000+0  11855-2 0  9994
2 48045  87.8851  85.6583 0001728  92.4328 267.6999 13.13470591170764
